IRIDIUM 106             
1 41917U 17003A   24243.62025542  .00000646  00000+0  22348-3 0  9991
2 41917  86.4022   2.4776 0001771  95.3217 264.8181 14.34220995399241
IRIDIUM 103             
1 41918U 17003B   24243.60756947  .00000930  00000+0  32512-3 0  9990
2 41918  86.4022   2.3845 0002198  79.5731 280.5712 14.34222580399266
IRIDIUM 109             
1 41919U 17003C   24243.61391419  .00000144  00000+0  44471-4 0  9996
2 41919  86.4021   2.4302 0002621  89.8632 270.2864 14.34218675399231
IRIDIUM 102             
1 41920U 17003D   24243.58219972  .00000188  00000+0  60073-4 0  9991
2 41920  86.4023   2.3813 0002208  96.0808 264.0640 14.34219448399318
IRIDIUM 105             
1 41921U 17003E   24243.34347821  .00000622  00000+0  21516-3 0  9992
2 41921  86.4017 330.9360 0002114  92.3028 267.8410 14.34206944401135
IRIDIUM 104             
1 41922U 17003F   24243.59488382  .00000521  00000+0  17902-3 0  9990
2 41922  86.4022   2.4085 0002455  87.4653 272.6824 14.34221289399301
IRIDIUM 114             
1 41923U 17003G   24243.60122437  .00000542  00000+0  18649-3 0  9991
2 41923  86.4022   2.3916 0001989  96.0479 264.0943 14.34218879399282
IRIDIUM 108             
1 41924U 17003H   24243.48998086  .00000540  00000+0  18564-3 0  9993
2 41924  86.4010 330.7946 0002106  97.1369 263.0066 14.34219756401120
